*******************************************************************************
Ephemeris / WWW_USER Tue Mar 27 21:46:33 2018 Pasadena, USA      / Horizons    
*******************************************************************************
Target body name: Venus (299)                     {source: DE431mx}
Center body name: Solar System Barycenter (0)     {source: DE431mx}
Center-site name: BODY CENTER
*******************************************************************************
Start time      : A.D. 2018-Feb-08 00:00:00.0000 TDB
Stop  time      : A.D. 2019-Feb-08 00:00:00.0000 TDB
Step-size       : 7200 minutes
*******************************************************************************
Center geodetic : 0.00000000,0.00000000,0.0000000 {E-lon(deg),Lat(deg),Alt(km)}
Center cylindric: 0.00000000,0.00000000,0.0000000 {E-lon(deg),Dxy(km),Dz(km)}
Center radii    : (undefined)                                                  
Output units    : AU-D                                                         
Output type     : GEOMETRIC cartesian states
Output format   : 2 (position and velocity)
Reference frame : ICRF/J2000.0                                                 
Coordinate systm: Ecliptic and Mean Equinox of Reference Epoch                 
*******************************************************************************
JDTDB
   X     Y     Z
   VX    VY    VZ
*******************************************************************************
$$SOE
2458367.500000000 = A.D. 2018-Sep-06 00:00:00.0000 TDB 
   4.911306312873667E-01 -5.295033595370370E-01 -3.577478339221878E-02
   1.478225674484075E-02  1.358223327294882E-02 -6.670001643193474E-04
2458372.500000000 = A.D. 2018-Sep-11 00:00:00.0000 TDB 
   5.601108762126734E-01 -4.566771431982827E-01 -3.875780350462930E-02
   1.276567322431506E-02  1.550182359332774E-02 -5.242959371430858E-04
2458377.500000000 = A.D. 2018-Sep-16 00:00:00.0000 TDB 
   6.183782912127822E-01 -3.749782905300701E-01 -4.100090097632129E-02
   1.050379602237510E-02  1.712568938175086E-02 -3.714928670883339E-04
2458382.500000000 = A.D. 2018-Sep-21 00:00:00.0000 TDB 
   6.648100542203175E-01 -2.859648715639127E-01 -4.246065229080725E-02
   8.038776732409417E-03  1.842297545074126E-02 -2.114465527602226E-04
2458387.500000000 = A.D. 2018-Sep-26 00:00:00.0000 TDB 
   6.985039196067135E-01 -1.913349440483988E-01 -4.310828247549980E-02
   5.416576782632939E-03  1.936862590032291E-02 -4.715287779142516E-05
2458392.500000000 = A.D. 2018-Oct-01 00:00:00.0000 TDB 
   7.187954528029665E-01 -9.289635776534033E-02 -4.293024538114069E-02
   2.686231456448116E-03  1.994385142734074E-02  1.183008617531843E-04
2458397.500000000 = A.D. 2018-Oct-06 00:00:00.0000 TDB 
   7.252714351031906E-01  7.465585461322467E-03 -4.192855362261328E-02
  -1.009455335419807E-04  2.013651840696968E-02  2.817871698284091E-04
2458402.500000000 = A.D. 2018-Oct-11 00:00:00.0000 TDB 
   7.177791501659343E-01  1.078222036794456E-01 -4.012084731109569E-02
  -2.892213210424378E-03  1.994145100143018E-02  4.401915553550370E-04
2458407.500000000 = A.D. 2018-Oct-16 00:00:00.0000 TDB 
   6.964312859826739E-01  2.062367790477971E-01 -3.754019269940481E-02
  -5.634304924120689E-03  1.936063620693106E-02  5.904672770474910E-04
2458412.500000000 = A.D. 2018-Oct-21 00:00:00.0000 TDB 
   6.616062181749344E-01  3.008006618398203E-01 -3.423460440981650E-02
  -8.274372718639225E-03  1.840332083147007E-02  7.296910617372725E-04
2458417.500000000 = A.D. 2018-Oct-26 00:00:00.0000 TDB 
   6.139434861590042E-01  3.896695655381858E-01 -3.026628804119840E-02
  -1.076096373231665E-02  1.708598907124562E-02  8.551191070976579E-04
2458422.500000000 = A.D. 2018-Oct-31 00:00:00.0000 TDB 
   5.543343364928790E-01  4.710994281927126E-01 -2.571060382656298E-02
  -1.304501419797895E-02  1.543220966119922E-02  9.642424892878869E-04
2458427.500000000 = A.D. 2018-Nov-05 00:00:00.0000 TDB 
   4.839072893119258E-01  5.434811622895535E-01 -2.065475716589641E-02
  -1.508084290606300E-02  1.347234260261241E-02  1.054840772914377E-03
2458432.500000000 = A.D. 2018-Nov-10 00:00:00.0000 TDB 
   4.040087823929313E-01  6.053735704413709E-01 -1.519622875500713E-02
  -1.682712293836665E-02  1.124309776771352E-02  1.125032291395075E-03
2458437.500000000 = A.D. 2018-Nov-15 00:00:00.0000 TDB 
   3.161790599004441E-01  6.555336752084159E-01 -9.440964992929015E-03
  -1.824780787979941E-02  8.786941765658725E-03  1.173319499031655E-03
2458442.500000000 = A.D. 2018-Nov-20 00:00:00.0000 TDB 
   2.221235982289860E-01  6.929437062113823E-01 -3.501357008431077E-03
  -1.931298619460642E-02  6.151354734159747E-03  1.198627940214418E-03
2458447.500000000 = A.D. 2018-Nov-25 00:00:00.0000 TDB 
   1.236804979106972E-01  7.168340099943803E-01  2.505956348840584E-03
  -1.999963567186230E-02  3.387944341694986E-03  1.200337466974843E-03
2458452.500000000 = A.D. 2018-Nov-30 00:00:00.0000 TDB 
   2.278441216455513E-02  7.267011991738802E-01  8.462419381088477E-03
  -2.029224970175418E-02  5.514302302659399E-04  1.178304341159722E-03
2458457.500000000 = A.D. 2018-Dec-05 00:00:00.0000 TDB 
  -7.857227935595062E-02  7.223209393903407E-01  1.424997538814608E-02
  -2.018330866210788E-02 -2.301481541836379E-03  1.132872918198376E-03
2458462.500000000 = A.D. 2018-Dec-10 00:00:00.0000 TDB 
  -1.783802166214854E-01  7.037548846744727E-01  1.975351271891567E-02
  -1.967357299812477E-02 -5.113308969411961E-03  1.064875929029031E-03
2458467.500000000 = A.D. 2018-Dec-15 00:00:00.0000 TDB 
  -2.746547873668354E-01  6.713514117789433E-01  2.486328259212936E-02
  -1.877218056760155E-02 -7.827058193722621E-03  9.756228288243171E-04
2458472.500000000 = A.D. 2018-Dec-20 00:00:00.0000 TDB 
  -3.654778264598213E-01  6.257399766632092E-01  2.947722799901069E-02
  -1.749653628085419E-02 -1.038750424228784E-02  8.668758643377392E-04
2458477.500000000 = A.D. 2018-Dec-25 00:00:00.0000 TDB 
  -4.490382329641028E-01  5.678191048840362E-01  3.350316273796260E-02
  -1.587198959767685E-02 -1.274245024835362E-02  7.408141696528088E-04
2458482.500000000 = A.D. 2018-Dec-30 00:00:00.0000 TDB 
  -5.236704524029678E-01  4.987382219208052E-01  3.686074270768401E-02
  -1.393130459651270E-02 -1.484392564154785E-02  5.999867483079795E-04
2458487.500000000 = A.D. 2019-Jan-04 00:00:00.0000 TDB 
  -5.878898162616212E-01  4.198737262262628E-01  3.948317687313832E-02
  -1.171393566542070E-02 -1.664928465281848E-02  4.472556089900763E-04
2458492.500000000 = A.D. 2019-Jan-09 00:00:00.0000 TDB 
  -6.404238164427920E-01  3.327998932233386E-01  4.131863275002716E-02
  -9.265129949954983E-03 -1.812216996241391E-02  2.857307521014974E-04
2458497.500000000 = A.D. 2019-Jan-14 00:00:00.0000 TDB 
  -6.802385164493379E-01  2.392553616585443E-01  4.233130064411117E-02
  -6.634884826266701E-03 -1.923331167411704E-02  1.186990479312455E-04
2458502.500000000 = A.D. 2019-Jan-19 00:00:00.0000 TDB 
  -7.065594570841965E-01  1.411060861005612E-01  4.250209170450517E-02
  -3.876794242724260E-03 -1.996113870567722E-02 -5.045072554522498E-05
2458507.500000000 = A.D. 2019-Jan-24 00:00:00.0000 TDB 
  -7.188865936630293E-01  4.030573428886034E-02  4.182895649665404E-02
  -1.046821427175746E-03 -2.029218767237414E-02 -2.183043161763591E-04
2458512.500000000 = A.D. 2019-Jan-29 00:00:00.0000 TDB 
  -7.170029939704669E-01 -6.114543847891851E-02  4.032682262969926E-02
   1.797963001136279E-03 -2.022130282529381E-02 -3.814975610041487E-04
2458517.500000000 = A.D. 2019-Feb-03 00:00:00.0000 TDB 
  -7.009772208095232E-01 -1.612421946488709E-01  3.802716135704617E-02
   4.600639049804929E-03 -1.975162898216674E-02 -5.367888861782234E-04
2458522.500000000 = A.D. 2019-Feb-08 00:00:00.0000 TDB 
  -6.711595097830604E-01 -2.580153854671311E-01  3.497720344629350E-02
   7.305655551351167E-03 -1.889440709356998E-02 -6.811268009935490E-04
